KUIPER-00053            
1 64513U 25134P   25357.87254538 -.00005280  00000+0 -66427-3 0  9992
2 64513  51.8993 198.3517 0001727 106.2263 253.8889 14.79919554 28981
KUIPER-00054            
1 64514U 25134Q   25357.80989552  .00002333  00000+0  33472-3 0  9995
2 64514  51.8974 193.6125 0005937  64.4780 295.6796 14.79972625 29047
KUIPER-00055            
1 64515U 25134R   25357.79616154  .00010807  00000+0  53778-3 0  9995
2 64515  51.8893 176.6218 0002442 228.7974 131.2795 15.18096139 29281
KUIPER-00056            
1 64516U 25134S   25357.87095858  .00007992  00000+0  10777-2 0  9999
2 64516  51.9017 199.3912 0002211  71.6257 288.4946 14.79870002 28970
KUIPER-00057            
1 64517U 25134T   25356.84984135  .00003291  00000+0  46044-3 0  9996
2 64517  51.8976 211.3955 0009681  28.4838 331.6652 14.79931551 28713
KUIPER-00058            
1 64518U 25134U   25357.86979613  .00002808  00000+0  39709-3 0  9998
2 64518  51.8987 200.8041 0004991  76.8193 283.3326 14.79949444 28952
KUIPER-00059            
1 64519U 25134V   25357.26755005  .00005788  00000+0  78768-3 0  9998
2 64519  51.8970 198.5244 0002755 199.7691 160.3165 14.79927492 28939
KUIPER-00060            
1 64520U 25134W   25357.87354827  .00000780  00000+0  13137-3 0  9990
2 64520  51.9005 196.8830 0002571 114.3854 245.7377 14.79945135 28996
